{
  "type": "FeatureCollection",
  "features": [
    {
      "type": "Feature",
      "properties": {
        "norad_id": 54259,
        "name": "EUTELSAT 10B",
        "group": "eutelsat",
        "lat": 0.008935687670324174,
        "lon": 82.84404779769137,
        "alt_km": 35782.7578719681,
        "timestamp": "2025-12-22T22:44:20.622578+00:00",
        "meta_object_name": "EUTELSAT 10B",
        "meta_object_id": "2022-157A",
        "meta_epoch": "2025-12-22T08:04:37.356672",
        "meta_mean_motion": 1.00272706,
        "meta_eccentricity": 7.394e-05,
        "meta_inclination": 0.0599,
        "meta_ra_of_asc_node": 96.663,
        "meta_arg_of_pericenter": 1.955,
        "meta_mean_anomaly": 123.7005,
        "meta_ephemeris_type": 0,
        "meta_classification_type": "U",
        "meta_norad_cat_id": 54259,
        "meta_element_set_no": 999,
        "meta_rev_at_epoch": 1125,
        "meta_bstar": 0,
        "meta_mean_motion_dot": 9e-07,
        "meta_mean_motion_ddot": 0,
        "tle_line1": "1 54259U 22157A   25356.33654348  .00000090  00000+0  00000+0 0  9996",
        "tle_line2": "2 54259   0.0599  96.6630 0000739   1.9550 123.7005  1.00272706 11251"
      },
      "geometry": {
        "type": "Point",
        "coordinates": [
          82.84404779769137,
          0.008935687670324174
        ]
      }
    },
    {
      "type": "Feature",
      "properties": {
        "norad_id": 59346,
        "name": "EUTELSAT 36D",
        "group": "eutelsat",
        "lat": 0.0453797124955351,
        "lon": 108.69826953113309,
        "alt_km": 35787.21245430078,
        "timestamp": "2025-12-22T22:44:20.622590+00:00",
        "meta_object_name": "EUTELSAT 36D",
        "meta_object_id": "2024-059A",
        "meta_epoch": "2025-12-22T12:47:38.770368",
        "meta_mean_motion": 1.00274753,
        "meta_eccentricity": 8.098e-05,
        "meta_inclination": 0.0226,
        "meta_ra_of_asc_node": 34.0425,
        "meta_arg_of_pericenter": 308.3114,
        "meta_mean_anomaly": 336.7565,
        "meta_ephemeris_type": 0,
        "meta_classification_type": "U",
        "meta_norad_cat_id": 59346,
        "meta_element_set_no": 999,
        "meta_rev_at_epoch": 637,
        "meta_bstar": 0,
        "meta_mean_motion_dot": 0,
        "meta_mean_motion_ddot": 0,
        "tle_line1": "1 59346U 24059A   25356.53308762  .00000000  00000+0  00000+0 0  9990",
        "tle_line2": "2 59346   0.0226  34.0425 0000809 308.3114 336.7565  1.00274753  6374"
      },
      "geometry": {
        "type": "Point",
        "coordinates": [
          108.69826953113309,
          0.0453797124955351
        ]
      }
    }
  ]
}